STARLINK-6217           
1 57058U 23088L   26068.44742797  .00006372  00000+0  48558-3 0  9992
2 57058  43.0017 108.7595 0000250 325.3200  34.7627 15.02594659150336
ION SCV-014             
1 62630U 25009X   26068.71776957  .00001812  00000+0  13229-3 0  9995
2 62630  97.4923 144.8636 0006450 112.6479 247.5430 15.04884649 63025
